PROBA-1                 
1 26958U 01049B   22246.53093124  .00000635  00000+0  58337-4 0  9990
2 26958  97.8296 206.4285 0072991  83.7429 277.2100 14.96514819136154
BIRD 2                  
1 26959U 01049C   22246.54609163  .00011775  00000+0  24354-3 0  9996
2 26959  97.7620 343.7049 0007650  93.8597 266.3526 15.45945956159001
CUTE-1 (CO-55)          
1 27844U 03031E   22246.50383295  .00000155  00000+0  89151-4 0  9991
2 27844  98.6805 253.0168 0008841 232.0929 127.9450 14.22486485995001
CUBESAT XI-IV (CO-57)   
1 27848U 03031J   22246.28015230  .00000122  00000+0  75070-4 0  9990
2 27848  98.6849 253.2995 0008599 248.9045 111.1214 14.22038970994776
GENESIS 1               
1 29252U 06029A   22246.18172624  .00003119  00000+0  14298-3 0  9994
2 29252  64.5215 175.7437 0056668 250.2389 109.2619 15.21177758890862
FALCONSAT-3             
1 30776U 07006E   22245.83283338  .00031031  00000+0  39243-3 0  9990
2 30776  35.4291 111.4301 0002956 350.5328   9.5350 15.58508780861642
GENESIS 2               
1 31789U 07028A   22245.85037217  .00002528  00000+0  12206-3 0  9993
2 31789  64.4950 220.2085 0054344 302.8285  56.7612 15.20045006837665
APRIZESAT 4             
1 35684U 09041D   22246.54209701  .00000351  00000+0  53459-4 0  9992
2 35684  98.3107 262.8629 0048119 100.9979 259.6649 14.79711413706663
APRIZESAT 3             
1 35686U 09041F   22246.50530663  .00000477  00000+0  56377-4 0  9995
2 35686  98.1054 334.9150 0070681 291.6985  67.6715 14.88023987710262
PROBA-2                 
1 36037U 09059B   22246.50646996  .00000090  00000+0  32420-4 0  9996
2 36037  98.2252  71.6371 0012461 224.7885 135.2306 14.53285884680680
APRIZESAT 5             
1 37792U 11044E   22246.54213529  .00000352  00000+0  58069-4 0  9996
2 37792  98.3131 124.2278 0058868 114.8087 245.9261 14.75821579594663
APRIZESAT 6             
1 37793U 11044F   22246.17830715  .00000278  00000+0  51344-4 0  9994
2 37793  98.3930 100.8611 0046798 167.5707 305.8537 14.72838438593452
TET-1                   
1 38710U 12039D   22246.19393092  .00072566  00000+0  41006-3 0  9995
2 38710  97.5034 333.0976 0002001 150.7167 209.4212 15.78922207569643
PROBA-V                 
1 39159U 13021A   22246.55278313  .00000000  00000+0  17979-4 0  9990
2 39159  98.3525 278.4940 0003494 207.8323 152.2670 14.23046008484434
STPSAT-3                
1 39380U 13064A   22246.44450637  .00025696  00000+0  48571-3 0  9991
2 39380  40.4973 287.5613 0006989 165.0450 195.0576 15.47761495493027
APRIZESAT 7             
1 39416U 13066A   22246.47283966  .00000536  00000+0  68644-4 0  9995
2 39416  97.5795 222.7307 0042318 100.6084 259.9902 14.84544226475649
APRIZESAT 8             
1 39425U 13066K   22246.18226105  .00000403  00000+0  56453-4 0  9993
2 39425  97.6342 213.9796 0052331 144.5992 215.8714 14.81688548474748
BUGSAT-1 (TITA)         
1 40014U 14033E   22246.54855064  .00001126  00000+0  10272-3 0  9997
2 40014  98.1454 248.1637 0031527 137.0197 223.3495 14.96935294447824
SAUDISAT 4              
1 40016U 14033G   22246.14665597  .00000266  00000+0  45584-4 0  9994
2 40016  97.6406  76.7206 0046663 248.7828 110.8395 14.75607851441872
APRIZESAT 9             
1 40018U 14033J   22246.46230615  .00000222  00000+0  43410-4 0  9998
2 40018  97.7230  52.8909 0070164 324.0513  35.5985 14.70315063440241
APRIZESAT 10            
1 40019U 14033K   22246.36931139  .00000168  00000+0  36577-4 0  9992
2 40019  97.7783  42.6168 0084054   8.7200 351.5443 14.67356022439403
TDS 1                   
1 40076U 14037H   22246.56393205  .00001301  00000+0  15621-3 0  9993
2 40076  98.3795 123.6237 0006795 167.4306 192.7079 14.85877149441387
TIANTUO 2               
1 40144U 14053B   22246.50909207  .00003467  00000+0  93005-4 0  9994
2 40144  97.1897 324.9193 0008969 278.4740 208.5562 15.38597760447094
TECHNOSAT               
1 42829U 17042E   22246.48670094  .00000788  00000+0  82673-4 0  9995
2 42829  97.4134  96.0486 0015480 104.5452 255.7486 14.92009029279727
FLYING LAPTOP           
1 42831U 17042G   22245.86464054  .00000467  00000+0  51201-4 0  9993
2 42831  97.4149  95.7953 0015284 107.1598 253.1305 14.91892799279638
HAWK-A                  
1 43765U 18099H   22246.13695978  .00001366  00000+0  12260-3 0  9995
2 43765  97.6135 312.1654 0014891  17.9022 342.2722 14.97268196204768
HAWK-B                  
1 43794U 18099AN  22246.13734508  .00001364  00000+0  12243-3 0  9999
2 43794  97.6135 312.1657 0014965  18.0642 342.1109 14.97268072204755
HAWK-C                  
1 43799U 18099AT  22246.47131203  .00001729  00000+0  15391-3 0  9996
2 43799  97.6134 312.3988 0014849  16.8305 343.3407 14.97271616204809
SALSAT                  
1 46495U 20068K   22245.83804580  .00001341  00000+0  99290-4 0  9996
2 46495  97.7334 187.1891 0017020  21.5226 338.6711 15.04771598105828
